{
    "links": {
        "self": "http://www.neowsapp.com/rest/v1/neo/3841616?api_key=iIulBulltgU6a56xZRHN4H3l9WmuAYTsLGpBGhQ2"
    },
    "id": "3841616",
    "neo_reference_id": "3841616",
    "name": "(2019 HF3)",
    "designation": "2019 HF3",
    "nasa_jpl_url": "http://ssd.jpl.nasa.gov/sbdb.cgi?sstr=3841616",
    "absolute_magnitude_h": 20.4,
    "estimated_diameter": {
        "kilometers": {
            "estimated_diameter_min": 0.2210828104,
            "estimated_diameter_max": 0.4943561926
        },
        "meters": {
            "estimated_diameter_min": 221.0828103591,
            "estimated_diameter_max": 494.3561926196
        },
        "miles": {
            "estimated_diameter_min": 0.137374447,
            "estimated_diameter_max": 0.3071786018
        },
        "feet": {
            "estimated_diameter_min": 725.3373275385,
            "estimated_diameter_max": 1621.9035709942
        }
    },
    "is_potentially_hazardous_asteroid": false,
    "close_approach_data": [
        {
            "close_approach_date": "2017-09-07",
            "close_approach_date_full": "2017-Sep-07 17:30",
            "epoch_date_close_approach": 1504805400000,
            "relative_velocity": {
                "kilometers_per_second": "19.4224116881",
                "kilometers_per_hour": "69920.6820773144",
                "miles_per_hour": "43445.9927052069"
            },
            "miss_distance": {
                "astronomical": "0.1654217534",
                "lunar": "64.3490620726",
                "kilometers": "24746741.960305258",
                "miles": "15376912.4172302404"
            },
            "orbiting_body": "Earth"
        },
        {
            "close_approach_date": "2018-09-16",
            "close_approach_date_full": "2018-Sep-16 01:14",
            "epoch_date_close_approach": 1537060440000,
            "relative_velocity": {
                "kilometers_per_second": "18.4972186484",
                "kilometers_per_hour": "66589.9871341075",
                "miles_per_hour": "41376.4283945236"
            },
            "miss_distance": {
                "astronomical": "0.2888426367",
                "lunar": "112.3597856763",
                "kilometers": "43210243.215503829",
                "miles": "26849600.1016136802"
            },
            "orbiting_body": "Earth"
        },
        {
            "close_approach_date": "2019-09-25",
            "close_approach_date_full": "2019-Sep-25 16:35",
            "epoch_date_close_approach": 1569429300000,
            "relative_velocity": {
                "kilometers_per_second": "18.4477952868",
                "kilometers_per_hour": "66412.0630323274",
                "miles_per_hour": "41265.8732769481"
            },
            "miss_distance": {
                "astronomical": "0.4203584629",
                "lunar": "163.5194420681",
                "kilometers": "62884730.686314023",
                "miles": "39074759.7277905974"
            },
            "orbiting_body": "Earth"
        }
    ],
    "orbital_data": {
        "orbit_id": "3",
        "orbit_determination_date": "2019-05-12 08:18:41",
        "first_observation_date": "2019-04-17",
        "last_observation_date": "2019-05-02",
        "data_arc_in_days": 15,
        "observations_used": 21,
        "orbit_uncertainty": "9",
        "minimum_orbit_intersection": ".0926556",
        "jupiter_tisserand_invariant": "5.798",
        "epoch_osculation": "2458599.5",
        "eccentricity": ".3502037675838896",
        "semi_major_axis": "1.015429254885227",
        "inclination": "35.48558068609924",
        "ascending_node_longitude": "341.8698572459946",
        "orbital_period": "373.7428852876695",
        "perihelion_distance": ".6598221041095185",
        "perihelion_argument": "91.10773963539178",
        "aphelion_distance": "1.371036405660935",
        "perihelion_time": "2458436.859245905096",
        "mean_anomaly": "156.6602971695342",
        "mean_motion": ".963229038388004",
        "equinox": "J2000",
        "orbit_class": {
            "orbit_class_type": "APO",
            "orbit_class_description": "Near-Earth asteroid orbits which cross the Earth’s orbit similar to that of 1862 Apollo",
            "orbit_class_range": "a (semi-major axis) > 1.0 AU; q (perihelion) < 1.017 AU"
        }
    },
    "is_sentry_object": false
}